{
  "type": "FeatureCollection",
  "features": [
    {
      "type": "Feature",
      "properties": {
        "norad_id": 58654,
        "name": "BEIDOU-3 M28 (C50)",
        "group": "beidou",
        "lat": 55.1956290675919,
        "lon": 149.0306073830256,
        "alt_km": 21527.354397164952,
        "timestamp": "2025-12-02T21:34:01.536718+00:00",
        "meta_object_name": "BEIDOU-3 M28 (C50)",
        "meta_object_id": "2023-207A",
        "meta_epoch": "2025-12-02T05:39:36.184608",
        "meta_mean_motion": 1.86229563,
        "meta_eccentricity": 0.0001988,
        "meta_inclination": 55.5754,
        "meta_ra_of_asc_node": 68.9573,
        "meta_arg_of_pericenter": 264.8657,
        "meta_mean_anomaly": 95.1143,
        "meta_ephemeris_type": 0,
        "meta_classification_type": "U",
        "meta_norad_cat_id": 58654,
        "meta_element_set_no": 999,
        "meta_rev_at_epoch": 1317,
        "meta_bstar": 0,
        "meta_mean_motion_dot": -4.7e-07,
        "meta_mean_motion_ddot": 0,
        "tle_line1": "1 58654U 23207A   25336.23583547 -.00000047  00000+0  00000+0 0  9998",
        "tle_line2": "2 58654  55.5754  68.9573 0001988 264.8657  95.1143  1.86229563 13170"
      },
      "geometry": {
        "type": "Point",
        "coordinates": [
          149.0306073830256,
          55.1956290675919
        ]
      }
    },
    {
      "type": "Feature",
      "properties": {
        "norad_id": 58655,
        "name": "BEIDOU-3 M26 (C48)",
        "group": "beidou",
        "lat": -32.009867341527986,
        "lon": -85.73719283073238,
        "alt_km": 21523.88492835286,
        "timestamp": "2025-12-02T21:34:01.536729+00:00",
        "meta_object_name": "BEIDOU-3 M26 (C48)",
        "meta_object_id": "2023-207B",
        "meta_epoch": "2025-11-29T21:15:29.587968",
        "meta_mean_motion": 1.86231123,
        "meta_eccentricity": 0.00033719,
        "meta_inclination": 55.5753,
        "meta_ra_of_asc_node": 69.0231,
        "meta_arg_of_pericenter": 249.3814,
        "meta_mean_anomaly": 110.59,
        "meta_ephemeris_type": 0,
        "meta_classification_type": "U",
        "meta_norad_cat_id": 58655,
        "meta_element_set_no": 999,
        "meta_rev_at_epoch": 1311,
        "meta_bstar": 0,
        "meta_mean_motion_dot": -3.1e-07,
        "meta_mean_motion_ddot": 0,
        "tle_line1": "1 58655U 23207B   25333.88575912 -.00000031  00000+0  00000+0 0  9997",
        "tle_line2": "2 58655  55.5753  69.0231 0003371 249.3814 110.5900  1.86231123 13116"
      },
      "geometry": {
        "type": "Point",
        "coordinates": [
          -85.73719283073238,
          -32.009867341527986
        ]
      }
    },
    {
      "type": "Feature",
      "properties": {
        "norad_id": 61186,
        "name": "BEIDOU-3 M25 (C47)",
        "group": "beidou",
        "lat": -18.625066367260168,
        "lon": -64.79290194094432,
        "alt_km": 21519.476737604204,
        "timestamp": "2025-12-02T21:34:01.536741+00:00",
        "meta_object_name": "BEIDOU-3 M25 (C47)",
        "meta_object_id": "2024-168B",
        "meta_epoch": "2025-12-01T06:18:53.159328",
        "meta_mean_motion": 1.86229803,
        "meta_eccentricity": 0.000556,
        "meta_inclination": 54.6528,
        "meta_ra_of_asc_node": 309.1184,
        "meta_arg_of_pericenter": 293.396,
        "meta_mean_anomaly": 26.9682,
        "meta_ephemeris_type": 0,
        "meta_classification_type": "U",
        "meta_norad_cat_id": 61186,
        "meta_element_set_no": 999,
        "meta_rev_at_epoch": 809,
        "meta_bstar": 0,
        "meta_mean_motion_dot": -5.7e-07,
        "meta_mean_motion_ddot": 0,
        "tle_line1": "1 61186U 24168B   25335.26311527 -.00000057  00000+0  00000+0 0  9999",
        "tle_line2": "2 61186  54.6528 309.1184 0005560 293.3960  26.9682  1.86229803  8097"
      },
      "geometry": {
        "type": "Point",
        "coordinates": [
          -64.79290194094432,
          -18.625066367260168
        ]
      }
    },
    {
      "type": "Feature",
      "properties": {
        "norad_id": 61187,
        "name": "BEIDOU-3 M27 (C49)",
        "group": "beidou",
        "lat": 49.17687786402917,
        "lon": 73.79170343610058,
        "alt_km": 21527.520260545272,
        "timestamp": "2025-12-02T21:34:01.536752+00:00",
        "meta_object_name": "BEIDOU-3 M27 (C49)",
        "meta_object_id": "2024-168C",
        "meta_epoch": "2025-12-01T06:11:08.494080",
        "meta_mean_motion": 1.86229947,
        "meta_eccentricity": 0.0002285,
        "meta_inclination": 54.6482,
        "meta_ra_of_asc_node": 309.1022,
        "meta_arg_of_pericenter": 327.2674,
        "meta_mean_anomaly": 124.4273,
        "meta_ephemeris_type": 0,
        "meta_classification_type": "U",
        "meta_norad_cat_id": 61187,
        "meta_element_set_no": 999,
        "meta_rev_at_epoch": 557,
        "meta_bstar": 0,
        "meta_mean_motion_dot": -5.7e-07,
        "meta_mean_motion_ddot": 0,
        "tle_line1": "1 61187U 24168C   25335.25773720 -.00000057  00000+0  00000+0 0  9996",
        "tle_line2": "2 61187  54.6482 309.1022 0002285 327.2674 124.4273  1.86229947  5577"
      },
      "geometry": {
        "type": "Point",
        "coordinates": [
          73.79170343610058,
          49.17687786402917
        ]
      }
    }
  ]
}